UNKNOWN                 
1 81552U          25293.80056914  .00001551  00000+0  34159-2 0  9990
2 81552  99.0613 227.7573 0258168 144.5277 217.3317 13.18036345572275
UNKNOWN                 
1 81599U          25298.54100861  .00000800  00000+0  15216-2 0  9997
2 81599  67.2975  25.2187 0247852 120.0916 268.5371 13.31382033578663
UNKNOWN                 
1 81605U          25298.52645645  .00000765  00000+0  35392-2 0  9994
2 81605  56.4357 350.1366 0166695  70.1351 291.7455 12.81169874180027
UNKNOWN                 
1 81614U          25284.47572083  .00005042  00000+0  31878-1 0  9995
2 81614 101.8589 282.2785 0362952 268.6990  87.2477 12.36334749530280
UNKNOWN                 
1 81615U          25298.07348595  .00002430  00000+0  86455-3 0  9997
2 81615  65.8256 175.5097 0777645 159.3232 204.1209 13.33631847576375
UNKNOWN                 
1 81617U          25298.41811894  .00000405  00000+0  26620-2 0  9991
2 81617 101.2603 114.9754 0038239 330.0888  29.8004 12.57483626547030
UNKNOWN                 
1 81624U          25294.33534327  .00008764  00000+0  14128-2 0  9995
2 81624  66.9769 311.5994 0075563 276.8564  82.3964 14.69960147632002
UNKNOWN                 
1 81640U          25297.21976640  .00000536  00000+0  55130-3 0  9999
2 81640  65.8262 233.1087 0975709  98.0447 273.2259 12.57160342503855
UNKNOWN                 
1 81652U          25298.59502361  .00000886  00000+0  10883-2 0  9992
2 81652 102.1494 177.1043 0365570 107.1579 287.8107 13.44264648572182
UNKNOWN                 
1 81667U          25297.94331870  .00003426  00000+0  93703-3 0  9997
2 81667  74.0382 127.8412 0014795  75.1084 285.1713 14.47539755449587
UNKNOWN                 
1 81674U          25294.21891498  .00001318  00000+0  79154-3 0  9991
2 81674  66.8213 136.5018 0033135 259.7838 214.5225 14.09722309606319
UNKNOWN                 
1 81683U          25298.47286917  .00003495  00000+0  77335-3 0  9994
2 81683  81.2172 346.2591 0025629  87.3068 273.1061 14.56861181628833
