CCSDS_OMM_VERS = 2.0
CREATION_DATE  = 
ORIGINATOR     = 

OBJECT_NAME    = UNKNOWN
OBJECT_ID      = 
CENTER_NAME    = EARTH
REF_FRAME      = TEME
TIME_SYSTEM    = UTC
MEAN_ELEMENT_THEORY = SGP/SGP4

EPOCH          = 2025-10-20T19:12:49.173696
MEAN_MOTION    = 13.18036345
ECCENTRICITY   = .0258168
INCLINATION    = 99.0613
RA_OF_ASC_NODE = 227.7573
ARG_OF_PERICENTER = 144.5277
MEAN_ANOMALY   = 217.3317

EPHEMERIS_TYPE = 0
CLASSIFICATION_TYPE = U
NORAD_CAT_ID   = 81552
ELEMENT_SET_NO = 999
REV_AT_EPOCH   = 57227
BSTAR          = .34159E-2
MEAN_MOTION_DOT = .1551E-4
MEAN_MOTION_DDOT = 0

CCSDS_OMM_VERS = 2.0
CREATION_DATE  = 
ORIGINATOR     = 

OBJECT_NAME    = UNKNOWN
OBJECT_ID      = 
CENTER_NAME    = EARTH
REF_FRAME      = TEME
TIME_SYSTEM    = UTC
MEAN_ELEMENT_THEORY = SGP/SGP4

EPOCH          = 2025-10-25T12:59:03.143904
MEAN_MOTION    = 13.31382033
ECCENTRICITY   = .0247852
INCLINATION    = 67.2975
RA_OF_ASC_NODE = 25.2187
ARG_OF_PERICENTER = 120.0916
MEAN_ANOMALY   = 268.5371

EPHEMERIS_TYPE = 0
CLASSIFICATION_TYPE = U
NORAD_CAT_ID   = 81599
ELEMENT_SET_NO = 999
REV_AT_EPOCH   = 57866
BSTAR          = .15216E-2
MEAN_MOTION_DOT = .8E-5
MEAN_MOTION_DDOT = 0

CCSDS_OMM_VERS = 2.0
CREATION_DATE  = 
ORIGINATOR     = 

OBJECT_NAME    = UNKNOWN
OBJECT_ID      = 
CENTER_NAME    = EARTH
REF_FRAME      = TEME
TIME_SYSTEM    = UTC
MEAN_ELEMENT_THEORY = SGP/SGP4

EPOCH          = 2025-10-25T12:38:05.837280
MEAN_MOTION    = 12.81169874
ECCENTRICITY   = .0166695
INCLINATION    = 56.4357
RA_OF_ASC_NODE = 350.1366
ARG_OF_PERICENTER = 70.1351
MEAN_ANOMALY   = 291.7455

EPHEMERIS_TYPE = 0
CLASSIFICATION_TYPE = U
NORAD_CAT_ID   = 81605
ELEMENT_SET_NO = 999
REV_AT_EPOCH   = 18002
BSTAR          = .35392E-2
MEAN_MOTION_DOT = .765E-5
MEAN_MOTION_DDOT = 0

CCSDS_OMM_VERS = 2.0
CREATION_DATE  = 
ORIGINATOR     = 

OBJECT_NAME    = UNKNOWN
OBJECT_ID      = 
CENTER_NAME    = EARTH
REF_FRAME      = TEME
TIME_SYSTEM    = UTC
MEAN_ELEMENT_THEORY = SGP/SGP4

EPOCH          = 2025-10-11T11:25:02.279712
MEAN_MOTION    = 12.36334749
ECCENTRICITY   = .0362952
INCLINATION    = 101.8589
RA_OF_ASC_NODE = 282.2785
ARG_OF_PERICENTER = 268.6990
MEAN_ANOMALY   = 87.2477

EPHEMERIS_TYPE = 0
CLASSIFICATION_TYPE = U
NORAD_CAT_ID   = 81614
ELEMENT_SET_NO = 999
REV_AT_EPOCH   = 53028
BSTAR          = .31878E-1
MEAN_MOTION_DOT = .5042E-4
MEAN_MOTION_DDOT = 0

CCSDS_OMM_VERS = 2.0
CREATION_DATE  = 
ORIGINATOR     = 

OBJECT_NAME    = UNKNOWN
OBJECT_ID      = 
CENTER_NAME    = EARTH
REF_FRAME      = TEME
TIME_SYSTEM    = UTC
MEAN_ELEMENT_THEORY = SGP/SGP4

EPOCH          = 2025-10-25T01:45:49.186080
MEAN_MOTION    = 13.33631847
ECCENTRICITY   = .0777645
INCLINATION    = 65.8256
RA_OF_ASC_NODE = 175.5097
ARG_OF_PERICENTER = 159.3232
MEAN_ANOMALY   = 204.1209

EPHEMERIS_TYPE = 0
CLASSIFICATION_TYPE = U
NORAD_CAT_ID   = 81615
ELEMENT_SET_NO = 999
REV_AT_EPOCH   = 57637
BSTAR          = .86455E-3
MEAN_MOTION_DOT = .243E-4
MEAN_MOTION_DDOT = 0

CCSDS_OMM_VERS = 2.0
CREATION_DATE  = 
ORIGINATOR     = 

OBJECT_NAME    = UNKNOWN
OBJECT_ID      = 
CENTER_NAME    = EARTH
REF_FRAME      = TEME
TIME_SYSTEM    = UTC
MEAN_ELEMENT_THEORY = SGP/SGP4

EPOCH          = 2025-10-25T10:02:05.476416
MEAN_MOTION    = 12.57483626
ECCENTRICITY   = .0038239
INCLINATION    = 101.2603
RA_OF_ASC_NODE = 114.9754
ARG_OF_PERICENTER = 330.0888
MEAN_ANOMALY   = 29.8004

EPHEMERIS_TYPE = 0
CLASSIFICATION_TYPE = U
NORAD_CAT_ID   = 81617
ELEMENT_SET_NO = 999
REV_AT_EPOCH   = 54703
BSTAR          = .2662E-2
MEAN_MOTION_DOT = .405E-5
MEAN_MOTION_DDOT = 0

CCSDS_OMM_VERS = 2.0
CREATION_DATE  = 
ORIGINATOR     = 

OBJECT_NAME    = UNKNOWN
OBJECT_ID      = 
CENTER_NAME    = EARTH
REF_FRAME      = TEME
TIME_SYSTEM    = UTC
MEAN_ELEMENT_THEORY = SGP/SGP4

EPOCH          = 2025-10-21T08:02:53.658528
MEAN_MOTION    = 14.69960147
ECCENTRICITY   = .0075563
INCLINATION    = 66.9769
RA_OF_ASC_NODE = 311.5994
ARG_OF_PERICENTER = 276.8564
MEAN_ANOMALY   = 82.3964

EPHEMERIS_TYPE = 0
CLASSIFICATION_TYPE = U
NORAD_CAT_ID   = 81624
ELEMENT_SET_NO = 999
REV_AT_EPOCH   = 63200
BSTAR          = .14128E-2
MEAN_MOTION_DOT = .8764E-4
MEAN_MOTION_DDOT = 0

CCSDS_OMM_VERS = 2.0
CREATION_DATE  = 
ORIGINATOR     = 

OBJECT_NAME    = UNKNOWN
OBJECT_ID      = 
CENTER_NAME    = EARTH
REF_FRAME      = TEME
TIME_SYSTEM    = UTC
MEAN_ELEMENT_THEORY = SGP/SGP4

EPOCH          = 2025-10-24T05:16:27.816960
MEAN_MOTION    = 12.57160342
ECCENTRICITY   = .0975709
INCLINATION    = 65.8262
RA_OF_ASC_NODE = 233.1087
ARG_OF_PERICENTER = 98.0447
MEAN_ANOMALY   = 273.2259

EPHEMERIS_TYPE = 0
CLASSIFICATION_TYPE = U
NORAD_CAT_ID   = 81640
ELEMENT_SET_NO = 999
REV_AT_EPOCH   = 50385
BSTAR          = .5513E-3
MEAN_MOTION_DOT = .536E-5
MEAN_MOTION_DDOT = 0

CCSDS_OMM_VERS = 2.0
CREATION_DATE  = 
ORIGINATOR     = 

OBJECT_NAME    = UNKNOWN
OBJECT_ID      = 
CENTER_NAME    = EARTH
REF_FRAME      = TEME
TIME_SYSTEM    = UTC
MEAN_ELEMENT_THEORY = SGP/SGP4

EPOCH          = 2025-10-25T14:16:50.039904
MEAN_MOTION    = 13.44264648
ECCENTRICITY   = .036557
INCLINATION    = 102.1494
RA_OF_ASC_NODE = 177.1043
ARG_OF_PERICENTER = 107.1579
MEAN_ANOMALY   = 287.8107

EPHEMERIS_TYPE = 0
CLASSIFICATION_TYPE = U
NORAD_CAT_ID   = 81652
ELEMENT_SET_NO = 999
REV_AT_EPOCH   = 57218
BSTAR          = .10883E-2
MEAN_MOTION_DOT = .886E-5
MEAN_MOTION_DDOT = 0

CCSDS_OMM_VERS = 2.0
CREATION_DATE  = 
ORIGINATOR     = 

OBJECT_NAME    = UNKNOWN
OBJECT_ID      = 
CENTER_NAME    = EARTH
REF_FRAME      = TEME
TIME_SYSTEM    = UTC
MEAN_ELEMENT_THEORY = SGP/SGP4

EPOCH          = 2025-10-24T22:38:22.735680
MEAN_MOTION    = 14.47539755
ECCENTRICITY   = .0014795
INCLINATION    = 74.0382
RA_OF_ASC_NODE = 127.8412
ARG_OF_PERICENTER = 75.1084
MEAN_ANOMALY   = 285.1713

EPHEMERIS_TYPE = 0
CLASSIFICATION_TYPE = U
NORAD_CAT_ID   = 81667
ELEMENT_SET_NO = 999
REV_AT_EPOCH   = 44958
BSTAR          = .93703E-3
MEAN_MOTION_DOT = .3426E-4
MEAN_MOTION_DDOT = 0

CCSDS_OMM_VERS = 2.0
CREATION_DATE  = 
ORIGINATOR     = 

OBJECT_NAME    = UNKNOWN
OBJECT_ID      = 
CENTER_NAME    = EARTH
REF_FRAME      = TEME
TIME_SYSTEM    = UTC
MEAN_ELEMENT_THEORY = SGP/SGP4

EPOCH          = 2025-10-21T05:15:14.254272
MEAN_MOTION    = 14.09722309
ECCENTRICITY   = .0033135
INCLINATION    = 66.8213
RA_OF_ASC_NODE = 136.5018
ARG_OF_PERICENTER = 259.7838
MEAN_ANOMALY   = 214.5225

EPHEMERIS_TYPE = 0
CLASSIFICATION_TYPE = U
NORAD_CAT_ID   = 81674
ELEMENT_SET_NO = 999
REV_AT_EPOCH   = 60631
BSTAR          = .79154E-3
MEAN_MOTION_DOT = .1318E-4
MEAN_MOTION_DDOT = 0

CCSDS_OMM_VERS = 2.0
CREATION_DATE  = 
ORIGINATOR     = 

OBJECT_NAME    = UNKNOWN
OBJECT_ID      = 
CENTER_NAME    = EARTH
REF_FRAME      = TEME
TIME_SYSTEM    = UTC
MEAN_ELEMENT_THEORY = SGP/SGP4

EPOCH          = 2025-10-25T11:20:55.896288
MEAN_MOTION    = 14.56861181
ECCENTRICITY   = .0025629
INCLINATION    = 81.2172
RA_OF_ASC_NODE = 346.2591
ARG_OF_PERICENTER = 87.3068
MEAN_ANOMALY   = 273.1061

EPHEMERIS_TYPE = 0
CLASSIFICATION_TYPE = U
NORAD_CAT_ID   = 81683
ELEMENT_SET_NO = 999
REV_AT_EPOCH   = 62883
BSTAR          = .77335E-3
MEAN_MOTION_DOT = .3495E-4
MEAN_MOTION_DDOT = 0

